[
  {
    "OBJECT_NAME": "STARLINK-5288",
    "OBJECT_ID": "2023-010AQ",
    "EPOCH": "2025-06-07T17:46:53.368608",
    "MEAN_MOTION": 14.98331282,
    "ECCENTRICITY": 0.0003078,
    "INCLINATION": 70,
    "RA_OF_ASC_NODE": 337.8603,
    "ARG_OF_PERICENTER": 269.9731,
    "MEAN_ANOMALY": 90.1075,
    "EPHEMERIS_TYPE": 0,
    "CLASSIFICATION_TYPE": "U",
    "NORAD_CAT_ID": 55307,
    "ELEMENT_SET_NO": 999,
    "REV_AT_EPOCH": 13227,
    "BSTAR": -1.7027e-05,
    "MEAN_MOTION_DOT": -2.96e-06,
    "MEAN_MOTION_DDOT": 0
  },
  {
    "OBJECT_NAME": "STARLINK-5315",
    "OBJECT_ID": "2023-010AS",
    "EPOCH": "2025-06-07T13:22:29.537184",
    "MEAN_MOTION": 14.9833467,
    "ECCENTRICITY": 0.0003063,
    "INCLINATION": 70.0001,
    "RA_OF_ASC_NODE": 338.0211,
    "ARG_OF_PERICENTER": 269.3153,
    "MEAN_ANOMALY": 90.7655,
    "EPHEMERIS_TYPE": 0,
    "CLASSIFICATION_TYPE": "U",
    "NORAD_CAT_ID": 55309,
    "ELEMENT_SET_NO": 999,
    "REV_AT_EPOCH": 13256,
    "BSTAR": -1.9657e-06,
    "MEAN_MOTION_DOT": -1.16e-06,
    "MEAN_MOTION_DDOT": 0
  },
  {
    "OBJECT_NAME": "STARLINK-5309",
    "OBJECT_ID": "2023-010AT",
    "EPOCH": "2025-06-07T15:52:42.969216",
    "MEAN_MOTION": 14.98340695,
    "ECCENTRICITY": 0.0002704,
    "INCLINATION": 69.9997,
    "RA_OF_ASC_NODE": 337.9834,
    "ARG_OF_PERICENTER": 269.1564,
    "MEAN_ANOMALY": 90.9286,
    "EPHEMERIS_TYPE": 0,
    "CLASSIFICATION_TYPE": "U",
    "NORAD_CAT_ID": 55310,
    "ELEMENT_SET_NO": 999,
    "REV_AT_EPOCH": 13225,
    "BSTAR": -6.2834e-05,
    "MEAN_MOTION_DOT": -8.43e-06,
    "MEAN_MOTION_DDOT": 0
  },
  {
    "OBJECT_NAME": "STARLINK-5312",
    "OBJECT_ID": "2023-010AU",
    "EPOCH": "2025-06-07T12:46:28.722432",
    "MEAN_MOTION": 14.98326383,
    "ECCENTRICITY": 0.00032,
    "INCLINATION": 69.9999,
    "RA_OF_ASC_NODE": 338.3347,
    "ARG_OF_PERICENTER": 271.0893,
    "MEAN_ANOMALY": 88.9899,
    "EPHEMERIS_TYPE": 0,
    "CLASSIFICATION_TYPE": "U",
    "NORAD_CAT_ID": 55311,
    "ELEMENT_SET_NO": 999,
    "REV_AT_EPOCH": 13342,
    "BSTAR": 6.3948e-05,
    "MEAN_MOTION_DOT": 6.7e-06,
    "MEAN_MOTION_DDOT": 0
  },
  {
    "OBJECT_NAME": "STARLINK-5296",
    "OBJECT_ID": "2023-010AV",
    "EPOCH": "2025-06-07T18:28:54.886080",
    "MEAN_MOTION": 14.98332445,
    "ECCENTRICITY": 0.0003087,
    "INCLINATION": 69.9992,
    "RA_OF_ASC_NODE": 337.4464,
    "ARG_OF_PERICENTER": 269.0916,
    "MEAN_ANOMALY": 90.9889,
    "EPHEMERIS_TYPE": 0,
    "CLASSIFICATION_TYPE": "U",
    "NORAD_CAT_ID": 55312,
    "ELEMENT_SET_NO": 999,
    "REV_AT_EPOCH": 13227,
    "BSTAR": 2.5116e-06,
    "MEAN_MOTION_DOT": -6.3e-07,
    "MEAN_MOTION_DDOT": 0
  },
  {
    "OBJECT_NAME": "STARLINK-5313",
    "OBJECT_ID": "2023-010AW",
    "EPOCH": "2025-06-07T12:28:25.996512",
    "MEAN_MOTION": 14.98332387,
    "ECCENTRICITY": 0.0003102,
    "INCLINATION": 69.9995,
    "RA_OF_ASC_NODE": 338.2904,
    "ARG_OF_PERICENTER": 268.3248,
    "MEAN_ANOMALY": 91.7556,
    "EPHEMERIS_TYPE": 0,
    "CLASSIFICATION_TYPE": "U",
    "NORAD_CAT_ID": 55313,
    "ELEMENT_SET_NO": 999,
    "REV_AT_EPOCH": 13342,
    "BSTAR": 6.3785e-06,
    "MEAN_MOTION_DOT": -1.7e-07,
    "MEAN_MOTION_DDOT": 0
  },
  {
    "OBJECT_NAME": "STARLINK-5305",
    "OBJECT_ID": "2023-010AX",
    "EPOCH": "2025-06-07T18:58:58.772928",
    "MEAN_MOTION": 14.98331492,
    "ECCENTRICITY": 0.0003017,
    "INCLINATION": 69.9997,
    "RA_OF_ASC_NODE": 337.6301,
    "ARG_OF_PERICENTER": 268.5273,
    "MEAN_ANOMALY": 91.5541,
    "EPHEMERIS_TYPE": 0,
    "CLASSIFICATION_TYPE": "U",
    "NORAD_CAT_ID": 55314,
    "ELEMENT_SET_NO": 999,
    "REV_AT_EPOCH": 13228,
    "BSTAR": 2.1407e-05,
    "MEAN_MOTION_DOT": 1.62e-06,
    "MEAN_MOTION_DDOT": 0
  },
  {
    "OBJECT_NAME": "STARLINK-4623",
    "OBJECT_ID": "2023-010AY",
    "EPOCH": "2025-06-07T00:03:43.432128",
    "MEAN_MOTION": 14.98336707,
    "ECCENTRICITY": 0.0002638,
    "INCLINATION": 70.0001,
    "RA_OF_ASC_NODE": 359.5733,
    "ARG_OF_PERICENTER": 268.9976,
    "MEAN_ANOMALY": 91.0881,
    "EPHEMERIS_TYPE": 0,
    "CLASSIFICATION_TYPE": "U",
    "NORAD_CAT_ID": 55315,
    "ELEMENT_SET_NO": 999,
    "REV_AT_EPOCH": 13196,
    "BSTAR": 6.8332e-05,
    "MEAN_MOTION_DOT": 7.23e-06,
    "MEAN_MOTION_DDOT": 0
  },
  {
    "OBJECT_NAME": "STARLINK-5257",
    "OBJECT_ID": "2023-010AZ",
    "EPOCH": "2025-06-07T21:29:10.794048",
    "MEAN_MOTION": 14.9832913,
    "ECCENTRICITY": 0.0002922,
    "INCLINATION": 69.9996,
    "RA_OF_ASC_NODE": 337.209,
    "ARG_OF_PERICENTER": 268.5432,
    "MEAN_ANOMALY": 91.5392,
    "EPHEMERIS_TYPE": 0,
    "CLASSIFICATION_TYPE": "U",
    "NORAD_CAT_ID": 55316,
    "ELEMENT_SET_NO": 999,
    "REV_AT_EPOCH": 13230,
    "BSTAR": -9.1855e-06,
    "MEAN_MOTION_DOT": -2.03e-06,
    "MEAN_MOTION_DDOT": 0
  },
  {
    "OBJECT_NAME": "STARLINK-5265",
    "OBJECT_ID": "2023-010BA",
    "EPOCH": "2025-06-07T12:22:24.976704",
    "MEAN_MOTION": 14.98330916,
    "ECCENTRICITY": 0.0003084,
    "INCLINATION": 69.9993,
    "RA_OF_ASC_NODE": 338.3031,
    "ARG_OF_PERICENTER": 270.838,
    "MEAN_ANOMALY": 89.2426,
    "EPHEMERIS_TYPE": 0,
    "CLASSIFICATION_TYPE": "U",
    "NORAD_CAT_ID": 55317,
    "ELEMENT_SET_NO": 999,
    "REV_AT_EPOCH": 13342,
    "BSTAR": -9.5115e-05,
    "MEAN_MOTION_DOT": -1.228e-05,
    "MEAN_MOTION_DDOT": 0
  },
  {
    "OBJECT_NAME": "STARLINK-5180",
    "OBJECT_ID": "2023-010BB",
    "EPOCH": "2025-06-07T18:40:56.703648",
    "MEAN_MOTION": 14.98333246,
    "ECCENTRICITY": 0.0003124,
    "INCLINATION": 69.9994,
    "RA_OF_ASC_NODE": 337.5874,
    "ARG_OF_PERICENTER": 265.8657,
    "MEAN_ANOMALY": 94.2145,
    "EPHEMERIS_TYPE": 0,
    "CLASSIFICATION_TYPE": "U",
    "NORAD_CAT_ID": 55318,
    "ELEMENT_SET_NO": 999,
    "REV_AT_EPOCH": 13227,
    "BSTAR": 1.7919e-05,
    "MEAN_MOTION_DOT": 1.21e-06,
    "MEAN_MOTION_DDOT": 0
  },
  {
    "OBJECT_NAME": "STARLINK-5196",
    "OBJECT_ID": "2023-010BC",
    "EPOCH": "2025-06-07T18:34:56.584992",
    "MEAN_MOTION": 14.98329132,
    "ECCENTRICITY": 0.0002979,
    "INCLINATION": 69.9993,
    "RA_OF_ASC_NODE": 337.5736,
    "ARG_OF_PERICENTER": 268.3174,
    "MEAN_ANOMALY": 91.7644,
    "EPHEMERIS_TYPE": 0,
    "CLASSIFICATION_TYPE": "U",
    "NORAD_CAT_ID": 55319,
    "ELEMENT_SET_NO": 999,
    "REV_AT_EPOCH": 13227,
    "BSTAR": -1.347e-05,
    "MEAN_MOTION_DOT": -2.54e-06,
    "MEAN_MOTION_DDOT": 0
  },
  {
    "OBJECT_NAME": "STARLINK-5492",
    "OBJECT_ID": "2023-013A",
    "EPOCH": "2025-06-07T12:44:28.836384",
    "MEAN_MOTION": 15.0254008,
    "ECCENTRICITY": 0.0001468,
    "INCLINATION": 43.0046,
    "RA_OF_ASC_NODE": 355.8779,
    "ARG_OF_PERICENTER": 262.9093,
    "MEAN_ANOMALY": 97.1582,
    "EPHEMERIS_TYPE": 0,
    "CLASSIFICATION_TYPE": "U",
    "NORAD_CAT_ID": 55331,
    "ELEMENT_SET_NO": 999,
    "REV_AT_EPOCH": 13074,
    "BSTAR": 0.00012793,
    "MEAN_MOTION_DOT": 1.525e-05,
    "MEAN_MOTION_DDOT": 0
  },
  {
    "OBJECT_NAME": "STARLINK-5491",
    "OBJECT_ID": "2023-013B",
    "EPOCH": "2025-06-07T05:54:46.236672",
    "MEAN_MOTION": 15.02541649,
    "ECCENTRICITY": 0.0001313,
    "INCLINATION": 43.0046,
    "RA_OF_ASC_NODE": 344.1608,
    "ARG_OF_PERICENTER": 255.9202,
    "MEAN_ANOMALY": 104.1495,
    "EPHEMERIS_TYPE": 0,
    "CLASSIFICATION_TYPE": "U",
    "NORAD_CAT_ID": 55332,
    "ELEMENT_SET_NO": 999,
    "REV_AT_EPOCH": 13042,
    "BSTAR": 1.2374e-05,
    "MEAN_MOTION_DOT": -3.6e-07,
    "MEAN_MOTION_DDOT": 0
  }
]