55307,STARLINK-5288,2023,96.11,290.0,+,70.0,Active,1,LEO,USA,USA,Commercial,Communications,Falcon,1 55307U 23010AQ  25158.74089547 -.00000296  00000+0 -17027-4 0  9990,2 55307  70.0000 337.8603 0003078 269.9731  90.1075 14.98331282132272,14.98331282,0.0003078,LEO
55309,STARLINK-5315,2023,96.11,290.0,+,70.0,Active,1,LEO,USA,USA,Commercial,Communications,Falcon,1 55309U 23010AS  25158.55728631 -.00000116  00000+0 -19657-5 0  9998,2 55309  70.0001 338.0211 0003063 269.3153  90.7655 14.98334670132565,14.9833467,0.0003063,LEO
55310,STARLINK-5309,2023,96.11,290.0,+,70.0,Active,1,LEO,USA,USA,Commercial,Communications,Falcon,1 55310U 23010AT  25158.66160844 -.00000843  00000+0 -62834-4 0  9999,2 55310  69.9997 337.9834 0002704 269.1564  90.9286 14.98340695132254,14.98340695,0.0002704,LEO
55311,STARLINK-5312,2023,96.11,290.0,+,70.0,Active,1,LEO,USA,USA,Commercial,Communications,Falcon,1 55311U 23010AU  25158.53227688  .00000670  00000+0  63948-4 0  9999,2 55311  69.9999 338.3347 0003200 271.0893  88.9899 14.98326383133425,14.98326383,0.00032,LEO
55312,STARLINK-5296,2023,96.11,290.0,+,70.0,Active,1,LEO,USA,USA,Commercial,Communications,Falcon,1 55312U 23010AV  25158.77007970 -.00000063  00000+0  25116-5 0  9999,2 55312  69.9992 337.4464 0003087 269.0916  90.9889 14.98332445132275,14.98332445,0.0003087,LEO
55313,STARLINK-5313,2023,96.11,290.0,+,70.0,Active,1,LEO,USA,USA,Commercial,Communications,Falcon,1 55313U 23010AW  25158.51974533 -.00000017  00000+0  63785-5 0  9993,2 55313  69.9995 338.2904 0003102 268.3248  91.7556 14.98332387133428,14.98332387,0.0003102,LEO
55314,STARLINK-5305,2023,96.11,290.0,+,70.0,Active,1,LEO,USA,USA,Commercial,Communications,Falcon,1 55314U 23010AX  25158.79095802  .00000162  00000+0  21407-4 0  9991,2 55314  69.9997 337.6301 0003017 268.5273  91.5541 14.98331492132281,14.98331492,0.0003017,LEO
55315,STARLINK-4623,2023,96.11,290.0,+,70.0,Active,1,LEO,USA,USA,Commercial,Communications,Falcon,1 55315U 23010AY  25158.00258602  .00000723  00000+0  68332-4 0  9996,2 55315  70.0001 359.5733 0002638 268.9976  91.0881 14.98336707131965,14.98336707,0.0002638,LEO
55316,STARLINK-5257,2023,96.11,290.0,+,70.0,Active,1,LEO,USA,USA,Commercial,Communications,Falcon,1 55316U 23010AZ  25158.89526382 -.00000203  00000+0 -91855-5 0  9999,2 55316  69.9996 337.2090 0002922 268.5432  91.5392 14.98329130132307,14.9832913,0.0002922,LEO
55317,STARLINK-5265,2023,96.11,290.0,+,70.0,Active,1,LEO,USA,USA,Commercial,Communications,Falcon,1 55317U 23010BA  25158.51556686 -.00001228  00000+0 -95115-4 0  9999,2 55317  69.9993 338.3031 0003084 270.8380  89.2426 14.98330916133420,14.98330916,0.0003084,LEO
55318,STARLINK-5180,2023,96.11,290.0,+,70.0,Active,1,LEO,USA,USA,Commercial,Communications,Falcon,1 55318U 23010BB  25158.77843407  .00000121  00000+0  17919-4 0  9993,2 55318  69.9994 337.5874 0003124 265.8657  94.2145 14.98333246132279,14.98333246,0.0003124,LEO
55319,STARLINK-5196,2023,96.11,290.0,+,70.0,Active,1,LEO,USA,USA,Commercial,Communications,Falcon,1 55319U 23010BC  25158.77426603 -.00000254  00000+0 -13470-4 0  9996,2 55319  69.9993 337.5736 0002979 268.3174  91.7644 14.98329132132270,14.98329132,0.0002979,LEO
55331,STARLINK-5492,2023,95.84,290.0,+,43.0,Active,1,LEO,USA,USA,Commercial,Communications,Falcon,1 55331U 23013A   25158.53088931  .00001525  00000+0  12793-3 0  9991,2 55331  43.0046 355.8779 0001468 262.9093  97.1582 15.02540080130742,15.0254008,0.0001468,LEO
55332,STARLINK-5491,2023,95.84,290.0,+,43.0,Active,1,LEO,USA,USA,Commercial,Communications,Falcon,1 55332U 23013B   25158.24636848 -.00000036  00000+0  12374-4 0  9999,2 55332  43.0046 344.1608 0001313 255.9202 104.1495 15.02541649130427,15.02541649,0.0001313,LEO
